NORAD_CAT_ID,OBJECT_NAME,OBJECT_TYPE,EPOCH,MEAN_MOTION,ECCENTRICITY,INCLINATION,RA_OF_ASC_NODE,ARG_OF_PERICENTER,MEAN_ANOMALY,BSTAR,MEAN_MOTION_DOT,MEAN_MOTION_DDOT,TLE_LINE0,TLE_LINE1,TLE_LINE2,SEMIMAJOR_AXIS,PERIOD,APOGEE,PERIGEE,DECAYED
51986.0,STARLINK-3645,PAYLOAD,2024-07-08 11:24:25,15.08837753,0.0001196,53.2161,253.8391,85.0822,275.0307,0.00011929,1.611e-05,0.0,0 STARLINK-3645,1 51986U 22025AG  24190.47529216  .00001611  00000-0  11929-3 0  9996,2 51986  53.2161 253.8391 0001196  85.0822 275.0307 15.08837753129094,6917.887,95.438,540.58,538.925,0.0
51986.0,STARLINK-3645,PAYLOAD,2024-07-08 20:56:43,15.08846361,0.0001298,53.217,252.0548,87.2932,272.8209,0.00018215,2.613e-05,0.0,0 STARLINK-3645,1 51986U 22025AG  24190.87272590  .00002613  00000-0  18215-3 0  9998,2 51986  53.2170 252.0548 0001298  87.2932 272.8209 15.08846361130248,6917.861,95.437,540.624,538.828,0.0
51986.0,STARLINK-3645,PAYLOAD,2024-07-09 03:18:16,15.08840951,0.0001407,53.2189,250.8705,83.0495,277.0658,0.0001577,2.223e-05,0.0,0 STARLINK-3645,1 51986U 22025AG  24191.13769031  .00002223  00000-0  15770-3 0  9999,2 51986  53.2189 250.8705 0001407  83.0495 277.0658 15.08840951130287,6917.877,95.437,540.716,538.769,0.0
51986.0,STARLINK-3645,PAYLOAD,2024-07-09 11:15:12,15.08833309,0.0001239,53.2159,249.3796,91.4196,268.6939,2.4464e-05,1.01e-06,0.0,0 STARLINK-3645,1 51986U 22025AG  24191.46889896  .00000101  00000-0  24464-4 0  9991,2 51986  53.2159 249.3796 0001239  91.4196 268.6939 15.08833309130334,6917.901,95.438,540.623,538.909,0.0
51986.0,STARLINK-3645,PAYLOAD,2024-07-10 12:41:22,15.08840964,0.0001297,53.2162,244.6216,87.2518,272.8623,7.7993e-05,9.54e-06,0.0,0 STARLINK-3645,1 51986U 22025AG  24192.52873556  .00000954  00000-0  77993-4 0  9996,2 51986  53.2162 244.6216 0001297  87.2518 272.8623 15.08840964130497,6917.877,95.437,540.64,538.845,0.0
51986.0,STARLINK-3645,PAYLOAD,2024-07-11 12:32:09,15.08841264,0.0001254,53.2156,240.1597,87.9257,272.1878,0.00014033,1.946e-05,0.0,0 STARLINK-3645,1 51986U 22025AG  24193.52233502  .00001946  00000-0  14033-3 0  9995,2 51986  53.2156 240.1597 0001254  87.9257 272.1878 15.08841264129557,6917.877,95.437,540.609,538.874,0.0
51986.0,STARLINK-3645,PAYLOAD,2024-07-11 20:29:05,15.08843834,0.0001268,53.2156,238.673,85.6962,274.4175,0.00015146,2.124e-05,0.0,0 STARLINK-3645,1 51986U 22025AG  24193.85353351  .00002124  00000-0  15146-3 0  9991,2 51986  53.2156 238.6730 0001268  85.6962 274.4175 15.08843834129607,6917.869,95.437,540.611,538.856,0.0
51986.0,STARLINK-3645,PAYLOAD,2024-07-12 12:22:56,15.0884345,0.0001436,53.2167,235.698,95.8406,264.275,0.00010168,1.331e-05,0.0,0 STARLINK-3645,1 51986U 22025AG  24194.51593511  .00001331  00000-0  10168-3 0  9997,2 51986  53.2167 235.6980 0001436  95.8406 264.2750 15.08843450129707,6917.87,95.437,540.728,538.741,0.0
51986.0,STARLINK-3645,PAYLOAD,2024-07-13 02:41:24,15.08844088,0.0001428,53.2166,233.02,107.8589,252.2559,5.8507e-05,6.43e-06,0.0,0 STARLINK-3645,1 51986U 22025AG  24195.11209441  .00000643  00000-0  58507-4 0  9995,2 51986  53.2166 233.0200 0001428 107.8589 252.2559 15.08844088130883,6917.868,95.437,540.721,538.745,0.0
51986.0,STARLINK-3645,PAYLOAD,2024-07-13 09:02:57,15.08842185,0.0001423,53.2163,231.8319,96.0577,264.0577,6.8206e-05,7.98e-06,0.0,0 STARLINK-3645,1 51986U 22025AG  24195.37705511  .00000798  00000-0  68206-4 0  9990,2 51986  53.2163 231.8319 0001423  96.0577 264.0577 15.08842185129838,6917.874,95.437,540.723,538.754,0.0
51986.0,STARLINK-3645,PAYLOAD,2024-07-14 12:04:30,15.08840899,0.0001341,53.2157,226.7766,93.9439,266.1706,5.131e-05,5.29e-06,0.0,0 STARLINK-3645,1 51986U 22025AG  24196.50313618  .00000529  00000-0  51310-4 0  9999,2 51986  53.2157 226.7766 0001341  93.9439 266.1706 15.08840899131090,6917.878,95.437,540.67,538.815,0.0
51986.0,STARLINK-3645,PAYLOAD,2024-07-15 02:22:58,15.08850834,0.0001239,53.2162,224.1022,90.7389,269.3745,0.00015974,2.256e-05,0.0,0 STARLINK-3645,1 51986U 22025AG  24197.09928497  .00002256  00000-0  15974-3 0  9995,2 51986  53.2162 224.1022 0001239  90.7389 269.3745 15.08850834131186,6917.847,95.437,540.569,538.855,0.0
51986.0,STARLINK-3645,PAYLOAD,2024-07-15 08:44:30,15.08856164,0.0001356,53.2156,222.9123,91.404,268.7108,0.00020696,3.009e-05,0.0,0 STARLINK-3645,1 51986U 22025AG  24197.36423996  .00003009  00000-0  20696-3 0  9993,2 51986  53.2156 222.9123 0001356  91.4040 268.7108 15.08856164130131,6917.831,95.437,540.634,538.758,0.0
51986.0,STARLINK-3645,PAYLOAD,2024-07-15 18:16:48,15.08861755,0.0001395,53.215,221.1288,89.7029,270.4123,0.00027196,4.045e-05,0.0,0 STARLINK-3645,1 51986U 22025AG  24197.76167638  .00004045  00000-0  27196-3 0  9998,2 51986  53.2150 221.1288 0001395  89.7029 270.4123 15.08861755130193,6917.814,95.436,540.644,538.714,0.0
51986.0,STARLINK-3645,PAYLOAD,2024-07-16 10:10:41,15.08833898,0.0001391,53.215,218.1549,83.1878,276.9272,-0.00012645,-2.299e-05,0.0,0 STARLINK-3645,1 51986U 22025AG  24198.42409050 -.00002299  00000-0 -12645-3 0  9993,2 51986  53.2150 218.1549 0001391  83.1878 276.9272 15.08833898131380,6917.899,95.438,540.726,538.802,0.0
51986.0,STARLINK-3645,PAYLOAD,2024-07-17 11:36:51,15.08837023,0.0001464,53.2143,213.397,83.519,276.5969,8.5027e-05,1.065e-05,0.0,0 STARLINK-3645,1 51986U 22025AG  24199.48393301  .00001065  00000-0  85027-4 0  9994,2 51986  53.2143 213.3970 0001464  83.5190 276.5969 15.08837023131540,6917.889,95.438,540.767,538.742,0.0
51986.0,STARLINK-3645,PAYLOAD,2024-07-18 09:52:16,15.08837667,0.0001477,53.2139,209.2335,80.8389,279.277,0.00030364,4.547e-05,0.0,0 STARLINK-3645,1 51986U 22025AG  24200.41129989  .00004547  00000-0  30364-3 0  9990,2 51986  53.2139 209.2335 0001477  80.8389 279.2770 15.08837667130596,6917.888,95.438,540.774,538.731,0.0
51986.0,STARLINK-3645,PAYLOAD,2024-07-18 17:49:11,15.08841739,0.0001465,53.2136,207.7467,83.8349,276.281,0.00034004,5.128e-05,0.0,0 STARLINK-3645,1 51986U 22025AG  24200.74249949  .00005128  00000-0  34004-3 0  9996,2 51986  53.2136 207.7467 0001465  83.8349 276.2810 15.08841739131732,6917.875,95.437,540.754,538.727,0.0
51986.0,STARLINK-3645,PAYLOAD,2024-07-19 08:07:40,15.08840823,0.0001455,53.2136,205.0698,86.4114,273.7044,0.00022438,3.285e-05,0.0,0 STARLINK-3645,1 51986U 22025AG  24201.33866106  .00003285  00000-0  22438-3 0  9992,2 51986  53.2136 205.0698 0001455  86.4114 273.7044 15.08840823130730,6917.878,95.438,540.749,538.736,0.0
51986.0,STARLINK-3645,PAYLOAD,2024-07-19 17:39:59,15.0884381,0.000146,53.2136,203.2856,86.1155,274.0004,0.00023166,3.401e-05,0.0,0 STARLINK-3645,1 51986U 22025AG  24201.73609974  .00003401  00000-0  23166-3 0  9993,2 51986  53.2136 203.2856 0001460  86.1155 274.0004 15.08843810131880,6917.869,95.437,540.744,538.724,0.0
51986.0,STARLINK-3645,PAYLOAD,2024-07-20 06:23:04,15.08842132,0.0001494,53.2139,200.907,87.6417,272.4746,0.00014035,1.947e-05,0.0,0 STARLINK-3645,1 51986U 22025AG  24202.26602089  .00001947  00000-0  14035-3 0  9990,2 51986  53.2139 200.9070 0001494  87.6417 272.4746 15.08842132130878,6917.874,95.437,540.772,538.705,0.0
51986.0,STARLINK-3645,PAYLOAD,2024-07-20 17:30:45,15.08847123,0.0001489,53.2141,198.8252,88.5407,271.5755,0.00019627,2.838e-05,0.0,0 STARLINK-3645,1 51986U 22025AG  24202.72969838  .00002838  00000-0  19627-3 0  9991,2 51986  53.2141 198.8252 0001489  88.5407 271.5755 15.08847123130944,6917.859,95.437,540.754,538.694,0.0
51986.0,STARLINK-3645,PAYLOAD,2024-07-21 04:38:28,15.08839478,0.000155,53.2151,196.7435,91.6179,268.4991,6.8676e-05,8.05e-06,0.0,0 STARLINK-3645,1 51986U 22025AG  24203.19338203  .00000805  00000-0  68676-4 0  9990,2 51986  53.2151 196.7435 0001550  91.6179 268.4991 15.08839478132106,6917.882,95.438,540.819,538.675,0.0
51986.0,STARLINK-3645,PAYLOAD,2024-07-21 09:24:38,15.08829046,0.0001286,53.2148,195.8536,79.8709,280.2428,-0.00011484,-2.115e-05,0.0,0 STARLINK-3645,1 51986U 22025AG  24203.39210698 -.00002115  00000-0 -11484-3 0  9991,2 51986  53.2148 195.8536 0001286  79.8709 280.2428 15.08829046132137,6917.914,95.438,540.669,538.889,0.0
51986.0,STARLINK-3645,PAYLOAD,2024-07-22 04:29:16,15.08826857,0.0002444,53.2158,192.282,124.0289,236.0936,-1.6308e-05,-5.48e-06,0.0,0 STARLINK-3645,1 51986U 22025AG  24204.18700016 -.00000548  00000-0 -16308-4 0  9996,2 51986  53.2158 192.2820 0002444 124.0289 236.0936 15.08826857132251,6917.921,95.438,541.476,538.095,0.0
51986.0,STARLINK-3645,PAYLOAD,2024-07-22 09:15:25,15.08837283,0.0001856,53.2167,191.3903,111.1426,248.9764,6.476e-05,7.43e-06,0.0,0 STARLINK-3645,1 51986U 22025AG  24204.38571659  .00000743  00000-0  64760-4 0  9997,2 51986  53.2167 191.3903 0001856 111.1426 248.9764 15.08837283132288,6917.889,95.438,541.038,538.47,0.0
51986.0,STARLINK-3645,PAYLOAD,2024-07-23 02:44:39,15.08846683,0.0001524,53.2157,188.121,104.423,255.6932,0.00022377,3.276e-05,0.0,0 STARLINK-3645,1 51986U 22025AG  24205.11434873  .00003276  00000-0  22377-3 0  9996,2 51986  53.2157 188.1210 0001524 104.4230 255.6932 15.08846683132390,6917.86,95.437,540.779,538.671,0.0
51986.0,STARLINK-3645,PAYLOAD,2024-07-23 09:06:12,15.08858146,0.0001732,53.2146,186.9306,108.7395,251.3785,0.00050441,7.753e-05,0.0,0 STARLINK-3645,1 51986U 22025AG  24205.37931058  .00007753  00000-0  50441-3 0  9998,2 51986  53.2146 186.9306 0001732 108.7395 251.3785 15.08858146131340,6917.825,95.436,540.888,538.492,0.0
51986.0,STARLINK-3645,PAYLOAD,2024-07-23 15:27:44,15.08866576,0.0001814,53.2147,185.7411,111.2076,248.911,0.00066303,0.00010287,0.0,0 STARLINK-3645,1 51986U 22025AG  24205.64426832  .00010287  00000-0  66303-3 0  9997,2 51986  53.2147 185.7411 0001814 111.2076 248.9110 15.08866576131385,6917.799,95.436,540.919,538.409,0.0
51986.0,STARLINK-3645,PAYLOAD,2024-07-24 04:10:50,15.08844552,0.0001708,53.2148,183.3623,110.2067,249.9109,-9.2808e-05,-1.765e-05,0.0,0 STARLINK-3645,1 51986U 22025AG  24206.17419185 -.00001765  00000-0 -92808-4 0  9992,2 51986  53.2148 183.3623 0001708 110.2067 249.9109 15.08844552132555,6917.866,95.437,540.913,538.55,0.0
